start=new Date('2022-03-29T00:00:00.000Z').valueOf();
sats=[{"INCLINATION":"53.0540","OBJECT_NAME":"STARLINK-2666","PERIAPSIS":"545.956","ELEMENT_SET_NO":"999","PERIOD":"95.593","LAUNCH_DATE":"2021-05-26","ECCENTRICITY":"0.00018500","REV_AT_EPOCH":"4651","TLE_LINE1":"1 48666U 21044AE  22087.77330856  .00001499  00000-0  11955-3 0  9996","TIME_SYSTEM":"UTC","FILE":"3378342","NORAD_CAT_ID":"48666","RCS_SIZE":"LARGE","CLASSIFICATION_TYPE":"U","ARG_OF_PERICENTER":"58.0267","DECAY_DATE":null,"OBJECT_TYPE":"PAYLOAD","OBJECT_ID":"2021-044AE","MEAN_MOTION_DOT":"0.00001499","MEAN_MOTION":"15.06392447","TLE_LINE2":"2 48666  53.0540 104.6284 0001850  58.0267 302.0901 15.06392447 46518","EPOCH":"2022-03-28T18:33:33.859584","MEAN_MOTION_DDOT":"0.0000000000000","REF_FRAME":"TEME","MEAN_ELEMENT_THEORY":"SGP4","APOAPSIS":"548.518","RA_OF_ASC_NODE":"104.6284","CENTER_NAME":"EARTH","GP_ID":"199945270","EPHEMERIS_TYPE":"0","SEMIMAJOR_AXIS":"6925.372","MEAN_ANOMALY":"302.0901","SITE":"AFETR","COUNTRY_CODE":"US","BSTAR":"0.00011955000000"},{"DECAY_DATE":null,"ARG_OF_PERICENTER":"55.7763","OBJECT_TYPE":"PAYLOAD","RCS_SIZE":"LARGE","NORAD_CAT_ID":"48667","CLASSIFICATION_TYPE":"U","TIME_SYSTEM":"UTC","FILE":"3377801","LAUNCH_DATE":"2021-05-26","PERIOD":"95.592","REV_AT_EPOCH":"4647","TLE_LINE1":"1 48667U 21044AF  22087.45725370  .00002307  00000-0  17373-3 0  9990","ECCENTRICITY":"0.00016440","PERIAPSIS":"546.063","INCLINATION":"53.0544","OBJECT_NAME":"STARLINK-2735","ELEMENT_SET_NO":"999","SEMIMAJOR_AXIS":"6925.336","EPHEMERIS_TYPE":"0","SITE":"AFETR","BSTAR":"0.00017373000000","COUNTRY_CODE":"US","MEAN_ANOMALY":"304.3382","MEAN_ELEMENT_THEORY":"SGP4","APOAPSIS":"548.340","CENTER_NAME":"EARTH","GP_ID":"199907029","RA_OF_ASC_NODE":"106.0479","EPOCH":"2022-03-28T10:58:26.719680","TLE_LINE2":"2 48667  53.0544 106.0479 0001644  55.7763 304.3382 15.06403954 46470","MEAN_MOTION_DDOT":"0.0000000000000","REF_FRAME":"TEME","OBJECT_ID":"2021-044AF","MEAN_MOTION_DOT":"0.00002307","MEAN_MOTION":"15.06403954"},{"MEAN_MOTION":"15.06407622","MEAN_MOTION_DOT":"0.00004047","OBJECT_ID":"2021-044AG","MEAN_MOTION_DDOT":"0.0000000000000","REF_FRAME":"TEME","TLE_LINE2":"2 48668  53.0544 106.0707 0001583  59.7428 300.3718 15.06407622 46474","EPOCH":"2022-03-28T10:53:08.210400","RA_OF_ASC_NODE":"106.0707","CENTER_NAME":"EARTH","GP_ID":"199907043","MEAN_ELEMENT_THEORY":"SGP4","APOAPSIS":"548.286","MEAN_ANOMALY":"300.3718","SITE":"AFETR","COUNTRY_CODE":"US","BSTAR":"0.00029038000000","EPHEMERIS_TYPE":"0","SEMIMAJOR_AXIS":"6925.325","ELEMENT_SET_NO":"999","INCLINATION":"53.0544","OBJECT_NAME":"STARLINK-2738","PERIAPSIS":"546.094","ECCENTRICITY":"0.00015830","REV_AT_EPOCH":"4647","TLE_LINE1":"1 48668U 21044AG  22087.45356725  .00004047  00000-0  29038-3 0  9999","PERIOD":"95.592","LAUNCH_DATE":"2021-05-26","FILE":"3377801","TIME_SYSTEM":"UTC","RCS_SIZE":"LARGE","NORAD_CAT_ID":"48668","CLASSIFICATION_TYPE":"U","DECAY_DATE":null,"ARG_OF_PERICENTER":"59.7428","OBJECT_TYPE":"PAYLOAD"},{"EPOCH":"2022-03-28T18:45:31.617216","TLE_LINE2":"2 48669  53.0528 104.5825 0001491  69.3613 290.7536 15.06408767 46518","MEAN_MOTION_DDOT":"0.0000000000000","REF_FRAME":"TEME","OBJECT_ID":"2021-044AH","MEAN_MOTION_DOT":"0.00005295","MEAN_MOTION":"15.06408767","SEMIMAJOR_AXIS":"6925.322","EPHEMERIS_TYPE":"0","SITE":"AFETR","BSTAR":"0.00037402000000","COUNTRY_CODE":"US","MEAN_ANOMALY":"290.7536","MEAN_ELEMENT_THEORY":"SGP4","APOAPSIS":"548.219","CENTER_NAME":"EARTH","GP_ID":"199945019","RA_OF_ASC_NODE":"104.5825","LAUNCH_DATE":"2021-05-26","PERIOD":"95.592","REV_AT_EPOCH":"4651","TLE_LINE1":"1 48669U 21044AH  22087.78161594  .00005295  00000-0  37402-3 0  9994","ECCENTRICITY":"0.00014910","PERIAPSIS":"546.154","INCLINATION":"53.0528","OBJECT_NAME":"STARLINK-2707","ELEMENT_SET_NO":"999","DECAY_DATE":null,"ARG_OF_PERICENTER":"69.3613","OBJECT_TYPE":"PAYLOAD","RCS_SIZE":"LARGE","NORAD_CAT_ID":"48669","CLASSIFICATION_TYPE":"U","TIME_SYSTEM":"UTC","FILE":"3378342"},{"FILE":"3378342","TIME_SYSTEM":"UTC","RCS_SIZE":"LARGE","NORAD_CAT_ID":"48670","CLASSIFICATION_TYPE":"U","ARG_OF_PERICENTER":"62.0922","DECAY_DATE":null,"OBJECT_TYPE":"PAYLOAD","ELEMENT_SET_NO":"999","INCLINATION":"53.0538","OBJECT_NAME":"STARLINK-2763","PERIAPSIS":"546.080","ECCENTRICITY":"0.00016360","REV_AT_EPOCH":"4651","TLE_LINE1":"1 48670U 21044AJ  22087.77792899  .00001276  00000-0  10455-3 0  9997","PERIOD":"95.592","LAUNCH_DATE":"2021-05-26","RA_OF_ASC_NODE":"104.5983","CENTER_NAME":"EARTH","GP_ID":"199945771","MEAN_ELEMENT_THEORY":"SGP4","APOAPSIS":"548.345","MEAN_ANOMALY":"298.0232","SITE":"AFETR","BSTAR":"0.00010455000000","COUNTRY_CODE":"US","EPHEMERIS_TYPE":"0","SEMIMAJOR_AXIS":"6925.348","MEAN_MOTION_DOT":"0.00001276","MEAN_MOTION":"15.06400344","OBJECT_ID":"2021-044AJ","MEAN_MOTION_DDOT":"0.0000000000000","REF_FRAME":"TEME","TLE_LINE2":"2 48670  53.0538 104.5983 0001636  62.0922 298.0232 15.06400344 46517","EPOCH":"2022-03-28T18:40:13.064736"},{"REF_FRAME":"TEME","MEAN_MOTION_DDOT":"0.0000000000000","EPOCH":"2022-03-28T18:34:54.942528","TLE_LINE2":"2 48671  53.0555 104.6351 0001652  57.7579 302.3570 15.06401110 46510","MEAN_MOTION":"15.06401110","MEAN_MOTION_DOT":"0.00001690","OBJECT_ID":"2021-044AK","COUNTRY_CODE":"US","BSTAR":"0.00013235000000","SITE":"AFETR","MEAN_ANOMALY":"302.3570","SEMIMAJOR_AXIS":"6925.345","EPHEMERIS_TYPE":"0","GP_ID":"199945521","CENTER_NAME":"EARTH","RA_OF_ASC_NODE":"104.6351","APOAPSIS":"548.354","MEAN_ELEMENT_THEORY":"SGP4","TLE_LINE1":"1 48671U 21044AK  22087.77424702  .00001690  00000-0  13235-3 0  9992","REV_AT_EPOCH":"4651","ECCENTRICITY":"0.00016520","LAUNCH_DATE":"2021-05-26","PERIOD":"95.592","ELEMENT_SET_NO":"999","PERIAPSIS":"546.066","OBJECT_NAME":"STARLINK-2745","INCLINATION":"53.0555","OBJECT_TYPE":"PAYLOAD","DECAY_DATE":null,"ARG_OF_PERICENTER":"57.7579","CLASSIFICATION_TYPE":"U","RCS_SIZE":"LARGE","NORAD_CAT_ID":"48671","FILE":"3378342","TIME_SYSTEM":"UTC"},{"INCLINATION":"53.0552","OBJECT_NAME":"STARLINK-2705","PERIAPSIS":"545.944","ELEMENT_SET_NO":"999","PERIOD":"95.592","LAUNCH_DATE":"2021-05-26","ECCENTRICITY":"0.00018450","REV_AT_EPOCH":"4651","TLE_LINE1":"1 48672U 21044AL  22087.77056374  .00002038  00000-0  15566-3 0  9995","TIME_SYSTEM":"UTC","FILE":"3378342","NORAD_CAT_ID":"48672","RCS_SIZE":"LARGE","CLASSIFICATION_TYPE":"U","DECAY_DATE":null,"ARG_OF_PERICENTER":"63.4781","OBJECT_TYPE":"PAYLOAD","OBJECT_ID":"2021-044AL","MEAN_MOTION":"15.06397296","MEAN_MOTION_DOT":"0.00002038","TLE_LINE2":"2 48672  53.0552 104.6480 0001845  63.4781 296.6397 15.06397296 46515","EPOCH":"2022-03-28T18:29:36.707136","MEAN_MOTION_DDOT":"0.0000000000000","REF_FRAME":"TEME","MEAN_ELEMENT_THEORY":"SGP4","APOAPSIS":"548.500","RA_OF_ASC_NODE":"104.6480","CENTER_NAME":"EARTH","GP_ID":"199944269","EPHEMERIS_TYPE":"0","SEMIMAJOR_AXIS":"6925.357","MEAN_ANOMALY":"296.6397","SITE":"AFETR","COUNTRY_CODE":"US","BSTAR":"0.00015566000000"},{"ELEMENT_SET_NO":"999","OBJECT_NAME":"STARLINK-2711","INCLINATION":"53.0543","PERIAPSIS":"546.035","ECCENTRICITY":"0.00016700","TLE_LINE1":"1 48673U 21044AM  22087.76687011  .00003011  00000-0  22094-3 0  9999","REV_AT_EPOCH":"4651","PERIOD":"95.592","LAUNCH_DATE":"2021-05-26","FILE":"3378342","TIME_SYSTEM":"UTC","CLASSIFICATION_TYPE":"U","RCS_SIZE":"LARGE","NORAD_CAT_ID":"48673","OBJECT_TYPE":"PAYLOAD","DECAY_DATE":null,"ARG_OF_PERICENTER":"54.5770","MEAN_MOTION_DOT":"0.00003011","MEAN_MOTION":"15.06407159","OBJECT_ID":"2021-044AM","REF_FRAME":"TEME","MEAN_MOTION_DDOT":"0.0000000000000","TLE_LINE2":"2 48673  53.0543 104.6562 0001670  54.5770 305.5375 15.06407159 46518","EPOCH":"2022-03-28T18:24:17.577504","RA_OF_ASC_NODE":"104.6562","GP_ID":"199944519","CENTER_NAME":"EARTH","APOAPSIS":"548.348","MEAN_ELEMENT_THEORY":"SGP4","MEAN_ANOMALY":"305.5375","BSTAR":"0.00022094000000","COUNTRY_CODE":"US","SITE":"AFETR","EPHEMERIS_TYPE":"0","SEMIMAJOR_AXIS":"6925.327"},{"MEAN_ELEMENT_THEORY":"SGP4","APOAPSIS":"548.455","CENTER_NAME":"EARTH","GP_ID":"199945271","RA_OF_ASC_NODE":"104.6750","SEMIMAJOR_AXIS":"6925.349","EPHEMERIS_TYPE":"0","SITE":"AFETR","COUNTRY_CODE":"US","BSTAR":"0.00013268000000","MEAN_ANOMALY":"303.0942","OBJECT_ID":"2021-044AN","MEAN_MOTION":"15.06399773","MEAN_MOTION_DOT":"0.00001695","EPOCH":"2022-03-28T18:18:59.711904","TLE_LINE2":"2 48674  53.0541 104.6750 0001792  57.0219 303.0942 15.06399773 46512","MEAN_MOTION_DDOT":"0.0000000000000","REF_FRAME":"TEME","TIME_SYSTEM":"UTC","FILE":"3378342","ARG_OF_PERICENTER":"57.0219","DECAY_DATE":null,"OBJECT_TYPE":"PAYLOAD","NORAD_CAT_ID":"48674","RCS_SIZE":"LARGE","CLASSIFICATION_TYPE":"U","PERIAPSIS":"545.973","INCLINATION":"53.0541","OBJECT_NAME":"STARLINK-2712","ELEMENT_SET_NO":"999","LAUNCH_DATE":"2021-05-26","PERIOD":"95.592","REV_AT_EPOCH":"4651","TLE_LINE1":"1 48674U 21044AN  22087.76319111  .00001695  00000-0  13268-3 0  9992","ECCENTRICITY":"0.00017920"},{"GP_ID":"199946022","CENTER_NAME":"EARTH","RA_OF_ASC_NODE":"104.6997","APOAPSIS":"548.362","MEAN_ELEMENT_THEORY":"SGP4","COUNTRY_CODE":"US","BSTAR":"0.00015061000000","SITE":"AFETR","MEAN_ANOMALY":"305.4022","SEMIMAJOR_AXIS":"6925.356","EPHEMERIS_TYPE":"0","MEAN_MOTION":"15.06397560","MEAN_MOTION_DOT":"0.00001962","OBJECT_ID":"2021-044AP","REF_FRAME":"TEME","MEAN_MOTION_DDOT":"0.0000000000000","EPOCH":"2022-03-28T18:13:40.916640","TLE_LINE2":"2 48675  53.0541 104.6997 0001647  54.7121 305.4022 15.06397560 46518","FILE":"3378342","TIME_SYSTEM":"UTC","OBJECT_TYPE":"PAYLOAD","ARG_OF_PERICENTER":"54.7121","DECAY_DATE":null,"CLASSIFICATION_TYPE":"U","RCS_SIZE":"MEDIUM","NORAD_CAT_ID":"48675","ELEMENT_SET_NO":"999","PERIAPSIS":"546.080","OBJECT_NAME":"STARLINK-2737","INCLINATION":"53.0541","TLE_LINE1":"1 48675U 21044AP  22087.75950135  .00001962  00000-0  15061-3 0  9999","REV_AT_EPOCH":"4651","ECCENTRICITY":"0.00016470","LAUNCH_DATE":"2021-05-26","PERIOD":"95.592"}];
